{"type": "FeatureCollection", "features": [ {"type": "Feature", "properties": {"norad_id": 66688, "name": "TRANSPORTER-15Y", "group": "last-30-days", "lat": -45.41412292708983, "lon": -114.43622409284102, "alt_km": 518.584234298477, "timestamp": "2025-12-27T16:33:28.971823+00:00", "meta": {"OBJECT_NAME": "TRANSPORTER-15Y", "OBJECT_ID": "2025-276Y", "EPOCH": "2025-12-27T10:49:00.290784", "MEAN_MOTION": 15.17145158, "ECCENTRICITY": 0.0003877, "INCLINATION": 97.4424, "RA_OF_ASC_NODE": 72.9501, "ARG_OF_PERICENTER": 227.0791, "MEAN_ANOMALY": 133.0118, "EPHEMERIS_TYPE": 0, "CLASSIFICATION_TYPE": "U", "NORAD_CAT_ID": 66688, "ELEMENT_SET_NO": 999, "REV_AT_EPOCH": 435, "BSTAR": 0.00047738, "MEAN_MOTION_DOT": 9.412e-05, "MEAN_MOTION_DDOT": 0}, "tle": {"line1": "1 66688U 25276Y   25361.45069781  .00009412  00000+0  47738-3 0  9990", "line2": "2 66688  97.4424  72.9501 0003877 227.0791 133.0118 15.17145158  4350"}}, "geometry": {"type": "Point", "coordinates": [-114.43622409284102, -45.41412292708983]}}, {"type": "Feature", "properties": {"norad_id": 66689, "name": "TRANSPORTER-15Z", "group": "last-30-days", "lat": -64.9533373595424, "lon": -123.05125905653533, "alt_km": 520.4268813741292, "timestamp": "2025-12-27T16:33:28.971833+00:00", "meta": {"OBJECT_NAME": "TRANSPORTER-15Z", "OBJECT_ID": "2025-276Z", "EPOCH": "2025-12-27T10:43:43.159584", "MEAN_MOTION": 15.17241488, "ECCENTRICITY": 0.0001502, "INCLINATION": 97.4405, "RA_OF_ASC_NODE": 72.9504, "ARG_OF_PERICENTER": 229.3208, "MEAN_ANOMALY": 130.7895, "EPHEMERIS_TYPE": 0, "CLASSIFICATION_TYPE": "U", "NORAD_CAT_ID": 66689, "ELEMENT_SET_NO": 999, "REV_AT_EPOCH": 435, "BSTAR": 0.00050602, "MEAN_MOTION_DOT": 0.00010008, "MEAN_MOTION_DDOT": 0}, "tle": {"line1": "1 66689U 25276Z   25361.44702731  .00010008  00000+0  50602-3 0  9996", "line2": "2 66689  97.4405  72.9504 0001502 229.3208 130.7895 15.17241488  4353"}}, "geometry": {"type": "Point", "coordinates": [-123.05125905653533, -64.9533373595424]}}, {"type": "Feature", "properties": {"norad_id": 66690, "name": "TRANSPORTER-15AA", "group": "last-30-days", "lat": -44.67161188933348, "lon": -114.25041443274745, "alt_km": 518.7077584162007, "timestamp": "2025-12-27T16:33:28.971845+00:00", "meta": {"OBJECT_NAME": "TRANSPORTER-15AA", "OBJECT_ID": "2025-276AA", "EPOCH": "2025-12-27T10:49:11.953056", "MEAN_MOTION": 15.17119001, "ECCENTRICITY": 0.0003773, "INCLINATION": 97.4387, "RA_OF_ASC_NODE": 72.9363, "ARG_OF_PERICENTER": 225.4118, "MEAN_ANOMALY": 134.6807, "EPHEMERIS_TYPE": 0, "CLASSIFICATION_TYPE": "U", "NORAD_CAT_ID": 66690, "ELEMENT_SET_NO": 999, "REV_AT_EPOCH": 435, "BSTAR": 0.00048635, "MEAN_MOTION_DOT": 9.583e-05, "MEAN_MOTION_DDOT": 0}, "tle": {"line1": "1 66690U 25276AA  25361.45083279  .00009583  00000+0  48635-3 0  9997", "line2": "2 66690  97.4387  72.9363 0003773 225.4118 134.6807 15.17119001  4357"}}, "geometry": {"type": "Point", "coordinates": [-114.25041443274745, -44.67161188933348]}}, {"type": "Feature", "properties": {"norad_id": 66691, "name": "TRANSPORTER-15AB", "group": "last-30-days", "lat": -59.756925942721665, "lon": -119.76807619574276, "alt_km": 518.2257125519109, "timestamp": "2025-12-27T16:33:28.971855+00:00", "meta": {"OBJECT_NAME": "TRANSPORTER-15AB", "OBJECT_ID": "2025-276AB", "EPOCH": "2025-12-27T10:45:10.931616", "MEAN_MOTION": 15.17397401, "ECCENTRICITY": 0.0003925, "INCLINATION": 97.4411, "RA_OF_ASC_NODE": 72.9486, "ARG_OF_PERICENTER": 228.3568, "MEAN_ANOMALY": 131.733, "EPHEMERIS_TYPE": 0, "CLASSIFICATION_TYPE": "U", "NORAD_CAT_ID": 66691, "ELEMENT_SET_NO": 999, "REV_AT_EPOCH": 435, "BSTAR": 0.0006094, "MEAN_MOTION_DOT": 0.00012125, "MEAN_MOTION_DDOT": 0}, "tle": {"line1": "1 66691U 25276AB  25361.44804319  .00012125  00000+0  60940-3 0  9992", "line2": "2 66691  97.4411  72.9486 0003925 228.3568 131.7330 15.17397401  4353"}}, "geometry": {"type": "Point", "coordinates": [-119.76807619574276, -59.756925942721665]}}, {"type": "Feature", "properties": {"norad_id": 66692, "name": "TRANSPORTER-15AC", "group": "last-30-days", "lat": -76.85104009578596, "lon": -140.82219879634948, "alt_km": 519.6259530653824, "timestamp": "2025-12-27T16:33:28.971865+00:00", "meta": {"OBJECT_NAME": "TRANSPORTER-15AC", "OBJECT_ID": "2025-276AC", "EPOCH": "2025-12-27T10:40:18.187680", "MEAN_MOTION": 15.17466274, "ECCENTRICITY": 0.0001878, "INCLINATION": 97.4412, "RA_OF_ASC_NODE": 72.9568, "ARG_OF_PERICENTER": 239.6097, "MEAN_ANOMALY": 120.4951, "EPHEMERIS_TYPE": 0, "CLASSIFICATION_TYPE": "U", "NORAD_CAT_ID": 66692, "ELEMENT_SET_NO": 999, "REV_AT_EPOCH": 435, "BSTAR": 0.00034929, "MEAN_MOTION_DOT": 6.929e-05, "MEAN_MOTION_DDOT": 0}, "tle": {"line1": "1 66692U 25276AC  25361.44465495  .00006929  00000+0  34929-3 0  9994", "line2": "2 66692  97.4412  72.9568 0001878 239.6097 120.4951 15.17466274  4352"}}, "geometry": {"type": "Point", "coordinates": [-140.82219879634948, -76.85104009578596]}}, {"type": "Feature", "properties": {"norad_id": 66693, "name": "TRANSPORTER-15AD", "group": "last-30-days", "lat": -79.79994461399421, "lon": -153.3696770852249, "alt_km": 517.7208524355929, "timestamp": "2025-12-27T16:33:28.971874+00:00", "meta": {"OBJECT_NAME": "TRANSPORTER-15AD", "OBJECT_ID": "2025-276AD", "EPOCH": "2025-12-27T10:39:20.503584", "MEAN_MOTION": 15.17752416, "ECCENTRICITY": 0.0003326, "INCLINATION": 97.4366, "RA_OF_ASC_NODE": 72.9358, "ARG_OF_PERICENTER": 253.0047, "MEAN_ANOMALY": 107.0823, "EPHEMERIS_TYPE": 0, "CLASSIFICATION_TYPE": "U", "NORAD_CAT_ID": 66693, "ELEMENT_SET_NO": 999, "REV_AT_EPOCH": 435, "BSTAR": 0.0007873, "MEAN_MOTION_DOT": 0.00015851, "MEAN_MOTION_DDOT": 0}, "tle": {"line1": "1 66693U 25276AD  25361.44398731  .00015851  00000+0  78730-3 0  9995", "line2": "2 66693  97.4366  72.9358 0003326 253.0047 107.0823 15.17752416  4358"}}, "geometry": {"type": "Point", "coordinates": [-153.3696770852249, -79.79994461399421]}}, {"type": "Feature", "properties": {"norad_id": 66694, "name": "YAM-9", "group": "last-30-days", "lat": -82.43334571001351, "lon": 152.91193244629332, "alt_km": 519.5059038206, "timestamp": "2025-12-27T16:33:28.971886+00:00", "meta": {"OBJECT_NAME": "YAM-9", "OBJECT_ID": "2025-276AE", "EPOCH": "2025-12-27T10:37:07.015584", "MEAN_MOTION": 15.17639781, "ECCENTRICITY": 0.0001639, "INCLINATION": 97.4413, "RA_OF_ASC_NODE": 72.9548, "ARG_OF_PERICENTER": 229.1926, "MEAN_ANOMALY": 130.9166, "EPHEMERIS_TYPE": 0, "CLASSIFICATION_TYPE": "U", "NORAD_CAT_ID": 66694, "ELEMENT_SET_NO": 999, "REV_AT_EPOCH": 435, "BSTAR": 0.00046166, "MEAN_MOTION_DOT": 9.228e-05, "MEAN_MOTION_DDOT": 0}, "tle": {"line1": "1 66694U 25276AE  25361.44244231  .00009228  00000+0  46166-3 0  9990", "line2": "2 66694  97.4413  72.9548 0001639 229.1926 130.9166 15.17639781  4352"}}, "geometry": {"type": "Point", "coordinates": [152.91193244629332, -82.43334571001351]}}, {"type": "Feature", "properties": {"norad_id": 66695, "name": "IRIDE FM1", "group": "last-30-days", "lat": -18.8802266909269, "lon": 75.78587700781803, "alt_km": 517.3733242350563, "timestamp": "2025-12-27T16:33:28.971896+00:00", "meta": {"OBJECT_NAME": "IRIDE FM1", "OBJECT_ID": "2025-276AF", "EPOCH": "2025-12-27T03:59:18.364128", "MEAN_MOTION": 15.18339535, "ECCENTRICITY": 0.00021852, "INCLINATION": 97.4402, "RA_OF_ASC_NODE": 72.7092, "ARG_OF_PERICENTER": 144.0483, "MEAN_ANOMALY": 216.0899, "EPHEMERIS_TYPE": 0, "CLASSIFICATION_TYPE": "U", "NORAD_CAT_ID": 66695, "ELEMENT_SET_NO": 999, "REV_AT_EPOCH": 431, "BSTAR": 0.0013520381, "MEAN_MOTION_DOT": 0.00027776, "MEAN_MOTION_DDOT": 0}, "tle": {"line1": "1 66695U 25276AF  25361.16618477  .00027776  00000+0  13520-2 0  9992", "line2": "2 66695  97.4402  72.7092 0002185 144.0483 216.0899 15.18339535  4313"}}, "geometry": {"type": "Point", "coordinates": [75.78587700781803, -18.8802266909269]}}, {"type": "Feature", "properties": {"norad_id": 66696, "name": "IRIDE FM2", "group": "last-30-days", "lat": -73.56693540600398, "lon": -133.11183167497816, "alt_km": 519.0718941530204, "timestamp": "2025-12-27T16:33:28.971906+00:00", "meta": {"OBJECT_NAME": "IRIDE FM2", "OBJECT_ID": "2025-276AG", "EPOCH": "2025-12-27T10:41:18.753216", "MEAN_MOTION": 15.17469634, "ECCENTRICITY": 0.0002591, "INCLINATION": 97.4382, "RA_OF_ASC_NODE": 72.9405, "ARG_OF_PERICENTER": 243.1369, "MEAN_ANOMALY": 116.96, "EPHEMERIS_TYPE": 0, "CLASSIFICATION_TYPE": "U", "NORAD_CAT_ID": 66696, "ELEMENT_SET_NO": 999, "REV_AT_EPOCH": 435, "BSTAR": 0.00029071, "MEAN_MOTION_DOT": 5.756e-05, "MEAN_MOTION_DDOT": 0}, "tle": {"line1": "1 66696U 25276AG  25361.44535594  .00005756  00000+0  29071-3 0  9995", "line2": "2 66696  97.4382  72.9405 0002591 243.1369 116.9600 15.17469634  4351"}}, "geometry": {"type": "Point", "coordinates": [-133.11183167497816, -73.56693540600398]}}, {"type": "Feature", "properties": {"norad_id": 66697, "name": "IRIDE FM3", "group": "last-30-days", "lat": -26.857144207227172, "lon": 77.00725161450235, "alt_km": 518.0543910897468, "timestamp": "2025-12-27T16:33:28.971916+00:00", "meta": {"OBJECT_NAME": "IRIDE FM3", "OBJECT_ID": "2025-276AH", "EPOCH": "2025-12-27T11:55:54.599808", "MEAN_MOTION": 15.18232938, "ECCENTRICITY": 0.000155, "INCLINATION": 97.4382, "RA_OF_ASC_NODE": 73.0244, "ARG_OF_PERICENTER": 149.4929, "MEAN_ANOMALY": 210.6395, "EPHEMERIS_TYPE": 0, "CLASSIFICATION_TYPE": "U", "NORAD_CAT_ID": 66697, "ELEMENT_SET_NO": 999, "REV_AT_EPOCH": 436, "BSTAR": 0.00035749, "MEAN_MOTION_DOT": 7.252e-05, "MEAN_MOTION_DDOT": 0}, "tle": {"line1": "1 66697U 25276AH  25361.49715972  .00007252  00000+0  35749-3 0  9993", "line2": "2 66697  97.4382  73.0244 0001550 149.4929 210.6395 15.18232938  4369"}}, "geometry": {"type": "Point", "coordinates": [77.00725161450235, -26.857144207227172]}}]}